start=new Date('2022-05-16T00:00:00.000Z').valueOf();
sats=[{"DECAY_DATE":null,"MEAN_MOTION":"15.08838975","RCS_SIZE":"LARGE","ECCENTRICITY":"0.00023220","OBJECT_ID":"2021-125M","MEAN_MOTION_DDOT":"0.0000000000000","SEMIMAJOR_AXIS":"6917.884","INCLINATION":"53.2187","PERIAPSIS":"538.142","OBJECT_TYPE":"PAYLOAD","MEAN_MOTION_DOT":"-0.00005890","REF_FRAME":"TEME","COUNTRY_CODE":"US","ELEMENT_SET_NO":"999","CLASSIFICATION_TYPE":"U","CENTER_NAME":"EARTH","BSTAR":"-0.00035223000000","EPOCH":"2022-05-15T22:00:00.999936","ARG_OF_PERICENTER":"32.3477","RA_OF_ASC_NODE":"36.0048","SITE":"AFWTR","LAUNCH_DATE":"2021-12-18","TIME_SYSTEM":"UTC","TLE_LINE1":"1 50167U 21125M   22135.91667824 -.00005890  00000-0 -35223-3 0  9998","OBJECT_NAME":"STARLINK-3271","FILE":"3447521","PERIOD":"95.438","MEAN_ANOMALY":"276.9112","REV_AT_EPOCH":"130","APOAPSIS":"541.355","TLE_LINE2":"2 50167  53.2187  36.0048 0002322  32.3477 276.9112 15.08838975  1309","GP_ID":"203651671","EPHEMERIS_TYPE":"0","NORAD_CAT_ID":"50167","MEAN_ELEMENT_THEORY":"SGP4"},{"APOAPSIS":"540.898","GP_ID":"203650926","TLE_LINE2":"2 50168  53.2170  26.0077 0001710  53.8411 110.3686 15.08849769  1309","EPHEMERIS_TYPE":"0","MEAN_ELEMENT_THEORY":"SGP4","NORAD_CAT_ID":"50168","TIME_SYSTEM":"UTC","LAUNCH_DATE":"2021-12-18","FILE":"3447521","OBJECT_NAME":"STARLINK-3296","TLE_LINE1":"1 50168U 21125N   22135.91667824 -.00012905  00000-0 -79393-3 0  9990","PERIOD":"95.437","MEAN_ANOMALY":"110.3686","REV_AT_EPOCH":"130","COUNTRY_CODE":"US","REF_FRAME":"TEME","CENTER_NAME":"EARTH","CLASSIFICATION_TYPE":"U","BSTAR":"-0.00079393000000","ELEMENT_SET_NO":"999","EPOCH":"2022-05-15T22:00:00.999936","ARG_OF_PERICENTER":"53.8411","SITE":"AFWTR","RA_OF_ASC_NODE":"26.0077","DECAY_DATE":null,"RCS_SIZE":"LARGE","MEAN_MOTION":"15.08849769","MEAN_MOTION_DDOT":"0.0000000000000","OBJECT_ID":"2021-125N","ECCENTRICITY":"0.00017100","SEMIMAJOR_AXIS":"6917.851","INCLINATION":"53.2170","PERIAPSIS":"538.533","OBJECT_TYPE":"PAYLOAD","MEAN_MOTION_DOT":"-0.00012905"},{"MEAN_ANOMALY":"291.1070","REV_AT_EPOCH":"130","LAUNCH_DATE":"2021-12-18","TIME_SYSTEM":"UTC","TLE_LINE1":"1 50169U 21125P   22135.91667824 -.00034747  00000-0 -21743-2 0  9994","OBJECT_NAME":"STARLINK-3301","FILE":"3447521","PERIOD":"95.436","EPHEMERIS_TYPE":"0","MEAN_ELEMENT_THEORY":"SGP4","NORAD_CAT_ID":"50169","APOAPSIS":"541.078","TLE_LINE2":"2 50169  53.2198  26.0162 0002021  33.0748 291.1070 15.08861435  1303","GP_ID":"203651176","ECCENTRICITY":"0.00020210","MEAN_MOTION_DDOT":"0.0000000000000","OBJECT_ID":"2021-125P","INCLINATION":"53.2198","SEMIMAJOR_AXIS":"6917.815","MEAN_MOTION_DOT":"-0.00034747","OBJECT_TYPE":"PAYLOAD","PERIAPSIS":"538.282","DECAY_DATE":null,"RCS_SIZE":"LARGE","MEAN_MOTION":"15.08861435","EPOCH":"2022-05-15T22:00:00.999936","ARG_OF_PERICENTER":"33.0748","RA_OF_ASC_NODE":"26.0162","SITE":"AFWTR","REF_FRAME":"TEME","COUNTRY_CODE":"US","ELEMENT_SET_NO":"999","CENTER_NAME":"EARTH","CLASSIFICATION_TYPE":"U","BSTAR":"-0.00217430000000"},{"EPOCH":"2022-05-15T22:00:00.999936","ARG_OF_PERICENTER":"49.8174","RA_OF_ASC_NODE":"26.0074","SITE":"AFWTR","REF_FRAME":"TEME","COUNTRY_CODE":"US","CENTER_NAME":"EARTH","CLASSIFICATION_TYPE":"U","BSTAR":"-0.00267600000000","ELEMENT_SET_NO":"999","OBJECT_ID":"2021-125Q","MEAN_MOTION_DDOT":"0.0000000000000","ECCENTRICITY":"0.00018280","SEMIMAJOR_AXIS":"6917.852","INCLINATION":"53.2159","PERIAPSIS":"538.452","OBJECT_TYPE":"PAYLOAD","MEAN_MOTION_DOT":"-0.00042636","DECAY_DATE":null,"RCS_SIZE":"LARGE","MEAN_MOTION":"15.08849394","EPHEMERIS_TYPE":"0","NORAD_CAT_ID":"50170","MEAN_ELEMENT_THEORY":"SGP4","APOAPSIS":"540.981","GP_ID":"203651426","TLE_LINE2":"2 50170  53.2159  26.0074 0001828  49.8174 154.4186 15.08849394  1305","MEAN_ANOMALY":"154.4186","REV_AT_EPOCH":"130","TIME_SYSTEM":"UTC","LAUNCH_DATE":"2021-12-18","FILE":"3447521","OBJECT_NAME":"STARLINK-3245","TLE_LINE1":"1 50170U 21125Q   22135.91667824 -.00042636  00000-0 -26760-2 0  9996","PERIOD":"95.437"},{"GP_ID":"203652172","TLE_LINE2":"2 50171  53.2163  26.0088 0001726  42.5914  81.6668 15.08839820  1304","APOAPSIS":"540.940","MEAN_ELEMENT_THEORY":"SGP4","NORAD_CAT_ID":"50171","EPHEMERIS_TYPE":"0","PERIOD":"95.438","FILE":"3447521","OBJECT_NAME":"STARLINK-3286","TLE_LINE1":"1 50171U 21125R   22135.91667824 -.00009038  00000-0 -55045-3 0  9995","TIME_SYSTEM":"UTC","LAUNCH_DATE":"2021-12-18","REV_AT_EPOCH":"130","MEAN_ANOMALY":"81.6668","CLASSIFICATION_TYPE":"U","BSTAR":"-0.00055045000000","CENTER_NAME":"EARTH","ELEMENT_SET_NO":"999","REF_FRAME":"TEME","COUNTRY_CODE":"US","SITE":"AFWTR","RA_OF_ASC_NODE":"26.0088","ARG_OF_PERICENTER":"42.5914","EPOCH":"2022-05-15T22:00:00.999936","RCS_SIZE":"LARGE","MEAN_MOTION":"15.08839820","DECAY_DATE":null,"OBJECT_TYPE":"PAYLOAD","PERIAPSIS":"538.552","MEAN_MOTION_DOT":"-0.00009038","SEMIMAJOR_AXIS":"6917.881","INCLINATION":"53.2163","MEAN_MOTION_DDOT":"0.0000000000000","OBJECT_ID":"2021-125R","ECCENTRICITY":"0.00017260"},{"PERIAPSIS":"538.242","OBJECT_TYPE":"PAYLOAD","MEAN_MOTION_DOT":"-0.00035442","ECCENTRICITY":"0.00021300","MEAN_MOTION_DDOT":"0.0000000000000","OBJECT_ID":"2021-125S","SEMIMAJOR_AXIS":"6917.851","INCLINATION":"53.2184","MEAN_MOTION":"15.08849692","RCS_SIZE":"LARGE","DECAY_DATE":null,"ARG_OF_PERICENTER":"37.1292","RA_OF_ASC_NODE":"26.0183","SITE":"AFWTR","EPOCH":"2022-05-15T22:00:00.999936","COUNTRY_CODE":"US","REF_FRAME":"TEME","ELEMENT_SET_NO":"999","CLASSIFICATION_TYPE":"U","CENTER_NAME":"EARTH","BSTAR":"-0.00221910000000","REV_AT_EPOCH":"130","MEAN_ANOMALY":"207.1011","TLE_LINE1":"1 50172U 21125S   22135.91667824 -.00035442  00000-0 -22191-2 0  9999","OBJECT_NAME":"STARLINK-3287","FILE":"3447521","PERIOD":"95.437","LAUNCH_DATE":"2021-12-18","TIME_SYSTEM":"UTC","MEAN_ELEMENT_THEORY":"SGP4","NORAD_CAT_ID":"50172","EPHEMERIS_TYPE":"0","TLE_LINE2":"2 50172  53.2184  26.0183 0002130  37.1292 207.1011 15.08849692  1308","GP_ID":"203650426","APOAPSIS":"541.189"},{"APOAPSIS":"543.975","GP_ID":"203650676","TLE_LINE2":"2 50173  53.2243  15.9423 0006331 277.2219 176.7450 15.08888981  1304","EPHEMERIS_TYPE":"0","NORAD_CAT_ID":"50173","MEAN_ELEMENT_THEORY":"SGP4","TIME_SYSTEM":"UTC","LAUNCH_DATE":"2021-12-18","OBJECT_NAME":"STARLINK-3289","FILE":"3447521","TLE_LINE1":"1 50173U 21125T   22135.91667824 -.00064665  00000-0 -40740-2 0  9999","PERIOD":"95.434","MEAN_ANOMALY":"176.7450","REV_AT_EPOCH":"130","COUNTRY_CODE":"US","REF_FRAME":"TEME","CLASSIFICATION_TYPE":"U","CENTER_NAME":"EARTH","BSTAR":"-0.00407400000000","ELEMENT_SET_NO":"999","EPOCH":"2022-05-15T22:00:00.999936","ARG_OF_PERICENTER":"277.2219","SITE":"AFWTR","RA_OF_ASC_NODE":"15.9423","DECAY_DATE":null,"RCS_SIZE":"LARGE","MEAN_MOTION":"15.08888981","MEAN_MOTION_DDOT":"0.0000000000000","OBJECT_ID":"2021-125T","ECCENTRICITY":"0.00063310","SEMIMAJOR_AXIS":"6917.731","INCLINATION":"53.2243","OBJECT_TYPE":"PAYLOAD","MEAN_MOTION_DOT":"-0.00064665","PERIAPSIS":"535.216"},{"TLE_LINE2":"2 50174  53.2194  26.0159 0002105  44.2693 259.9668 15.08829199  1303","GP_ID":"203651927","APOAPSIS":"541.235","NORAD_CAT_ID":"50174","MEAN_ELEMENT_THEORY":"SGP4","EPHEMERIS_TYPE":"0","TLE_LINE1":"1 50174U 21125U   22135.91667824 -.00003249  00000-0 -18615-3 0  9998","OBJECT_NAME":"STARLINK-3292","FILE":"3447521","PERIOD":"95.438","LAUNCH_DATE":"2021-12-18","TIME_SYSTEM":"UTC","REV_AT_EPOCH":"130","MEAN_ANOMALY":"259.9668","COUNTRY_CODE":"US","REF_FRAME":"TEME","ELEMENT_SET_NO":"999","CLASSIFICATION_TYPE":"U","BSTAR":"-0.00018615000000","CENTER_NAME":"EARTH","ARG_OF_PERICENTER":"44.2693","RA_OF_ASC_NODE":"26.0159","SITE":"AFWTR","EPOCH":"2022-05-15T22:00:00.999936","RCS_SIZE":"LARGE","MEAN_MOTION":"15.08829199","DECAY_DATE":null,"OBJECT_TYPE":"PAYLOAD","MEAN_MOTION_DOT":"-0.00003249","PERIAPSIS":"538.322","ECCENTRICITY":"0.00021050","MEAN_MOTION_DDOT":"0.0000000000000","OBJECT_ID":"2021-125U","INCLINATION":"53.2194","SEMIMAJOR_AXIS":"6917.913"},{"CLASSIFICATION_TYPE":"U","CENTER_NAME":"EARTH","BSTAR":"-0.00292080000000","ELEMENT_SET_NO":"999","COUNTRY_CODE":"US","REF_FRAME":"TEME","SITE":"AFWTR","RA_OF_ASC_NODE":"26.0081","ARG_OF_PERICENTER":"51.4889","EPOCH":"2022-05-15T22:00:00.999936","RCS_SIZE":"LARGE","MEAN_MOTION":"15.08849977","DECAY_DATE":null,"MEAN_MOTION_DOT":"-0.00046486","OBJECT_TYPE":"PAYLOAD","PERIAPSIS":"538.582","SEMIMAJOR_AXIS":"6917.850","INCLINATION":"53.2172","OBJECT_ID":"2021-125V","MEAN_MOTION_DDOT":"0.0000000000000","ECCENTRICITY":"0.00016380","GP_ID":"203651672","TLE_LINE2":"2 50175  53.2172  26.0081 0001638  51.4889 132.7485 15.08849977  1302","APOAPSIS":"540.848","NORAD_CAT_ID":"50175","MEAN_ELEMENT_THEORY":"SGP4","EPHEMERIS_TYPE":"0","PERIOD":"95.437","FILE":"3447521","OBJECT_NAME":"STARLINK-3291","TLE_LINE1":"1 50175U 21125V   22135.91667824 -.00046486  00000-0 -29208-2 0  9998","TIME_SYSTEM":"UTC","LAUNCH_DATE":"2021-12-18","REV_AT_EPOCH":"130","MEAN_ANOMALY":"132.7485"},{"RA_OF_ASC_NODE":"26.0154","SITE":"AFWTR","ARG_OF_PERICENTER":"32.5894","EPOCH":"2022-05-15T22:00:00.999936","BSTAR":"-0.00014384000000","CENTER_NAME":"EARTH","CLASSIFICATION_TYPE":"U","ELEMENT_SET_NO":"999","REF_FRAME":"TEME","COUNTRY_CODE":"US","PERIAPSIS":"538.412","OBJECT_TYPE":"PAYLOAD","MEAN_MOTION_DOT":"-0.00002576","INCLINATION":"53.2193","SEMIMAJOR_AXIS":"6917.935","MEAN_MOTION_DDOT":"0.0000000000000","OBJECT_ID":"2021-125W","ECCENTRICITY":"0.00020070","RCS_SIZE":"LARGE","MEAN_MOTION":"15.08822149","DECAY_DATE":null,"NORAD_CAT_ID":"50176","MEAN_ELEMENT_THEORY":"SGP4","EPHEMERIS_TYPE":"0","GP_ID":"203650927","TLE_LINE2":"2 50176  53.2193  26.0154 0002007  32.5894 251.6862 15.08822149  1306","APOAPSIS":"541.188","REV_AT_EPOCH":"130","MEAN_ANOMALY":"251.6862","PERIOD":"95.439","OBJECT_NAME":"STARLINK-3293","FILE":"3447521","TLE_LINE1":"1 50176U 21125W   22135.91667824 -.00002576  00000-0 -14384-3 0  9991","TIME_SYSTEM":"UTC","LAUNCH_DATE":"2021-12-18"}];
